BEIDOU 10               
1 37948U 11073A   21067.02012863 -.00000130  00000-0  00000-0 0  9996
2 37948  51.1340 294.8159 0069447 214.9357 119.5385  1.00276320 34073
LUCH 5A                 
1 37951U 11074B   21067.88798424 -.00000069  00000-0  00000+0 0  9999
2 37951   3.8758 107.7442 0003885 277.7916 267.8451  1.00272148 33875
SSOT                    
1 38011U 11076E   21068.18913253  .00000189  00000-0  30297-4 0  9990
2 38011  97.8386 146.3331 0001446  89.1334 271.0052 14.82037770499121
PLEIADES 1A             
1 38012U 11076F   21068.19253293 -.00000013  00000-0  70486-5 0  9995
2 38012  98.1713 144.7715 0001570  79.6603 280.4780 14.58568740491256
NIGCOMSAT 1R            
1 38014U 11077A   21067.93500439  .00000123  00000-0  00000-0 0  9997
2 38014   0.0286  95.1553 0000607 353.7753  96.9729  1.00273749 33649
ZIYUAN 1-02C (ZY 1-02C) 
1 38038U 11079A   21068.03860374  .00000047  00000-0  32205-4 0  9995
2 38038  98.6521 128.1260 0006847 194.5675 165.5315 14.35303864482723
GLOBALSTAR M084         
1 38040U 11080A   21067.58260992 -.00000103  00000-0  25744-5 0  9994
2 38040  51.9999 122.5794 0000690 131.4732  20.3664 12.62263464425643
GLOBALSTAR M080         
1 38041U 11080B   21068.16039471 -.00000103  00000-0  37906-5 0  9999
2 38041  52.0050 121.8790 0000746 133.5182 244.6782 12.62268407425796
GLOBALSTAR M082         
1 38042U 11080C   21068.09977917 -.00000105  00000-0 -89788-5 0  9996
2 38042  52.0070  77.3426 0000479  54.5829 348.4505 12.62264664426522
GLOBALSTAR M092         
1 38043U 11080D   21068.02212146 -.00000122  00000-0 -10145-3 0  9994
2 38043  52.0079 167.8683 0000569 136.0633  34.6794 12.62270233425006
GLOBALSTAR M090         
1 38044U 11080E   21067.75830510 -.00000104  00000-0 -31245-5 0  9991
2 38044  51.9882  74.2037 0000507  88.2911  82.3106 12.62265982426429
GLOBALSTAR M086         
1 38045U 11080F   21067.78499633 -.00000100  00000-0  18731-4 0  9991
2 38045  51.9894  74.5527 0001683 112.0306  59.6992 12.62265364426378
ZIYUAN 3-1 (ZY 3-1)     
1 38046U 12001A   21068.08566435  .00000999  00000-0  47593-4 0  9998
2 38046  97.3897 143.9944 0002730  17.5831  75.3372 15.21392945508851
FENGYUN 2F              
1 38049U 12002A   21068.37941177 -.00000378  00000-0  00000+0 0  9993
2 38049   2.6779  82.6499 0004209  40.6340 292.0585  1.00285194 33576
WGS F4 (USA 233)        
1 38070U 12003A   21067.72877866 -.00000236  00000-0  00000-0 0  9993
2 38070   0.0058 151.0183 0000415 297.2467  69.0981  1.00270630 24838
LARES                   
1 38077U 12006A   21067.80761234 -.00000059  00000-0 -12812-3 0  9994
2 38077  69.4975 342.6718 0006681  51.3601 308.8021 12.54930650415484
SES-4                   
1 38087U 12007A   21067.77859037 -.00000190  00000-0  00000-0 0  9999
2 38087   0.0088 122.7468 0002254 220.4964  81.7176  1.00270745 32926
BEIDOU 11               
1 38091U 12008A   21067.93823212  .00000036  00000-0  00000-0 0  9997
2 38091   1.3394  64.4909 0008385 300.2948 198.4557  1.00271100 33169
MUOS-1                  
1 38093U 12009A   21067.61929759 -.00000146  00000-0  00000-0 0  9991
2 38093   2.5748  17.1842 0058735 358.3037 273.9961  1.00271652 33121
INTELSAT 22 (IS-22)     
1 38098U 12011A   21067.77896667 -.00000080  00000-0  00000-0 0  9994
2 38098   0.0194 236.3463 0002784 113.0963 169.7564  1.00271753 32509
APSTAR 7                
1 38107U 12013A   21067.73591125 -.00000123  00000-0  00000-0 0  9992
2 38107   0.0298 119.3448 0002920 255.7620 132.9571  1.00271889 32492
YAHSAT 1B               
1 38245U 12016A   21068.07958193  .00000104  00000-0  00000+0 0  9995
2 38245   0.0145 155.1480 0001434 221.9457 226.1142  1.00271570 32602
BEIDOU 12               
1 38250U 12018A   21067.86905403 -.00000112  00000-0  00000-0 0  9996
2 38250  56.7564   8.9332 0023293 252.2114 284.4456  1.86234397 60411
BEIDOU 13               
1 38251U 12018B   21067.39363836 -.00000110  00000-0  00000-0 0  9991
2 38251  56.6787   8.3030 0014297 258.3786   3.9689  1.86234277 60401
AEHF-2 (USA 235)        
1 38254U 12019A   21067.76951785 -.00000295  00000-0  00000-0 0  9996
2 38254   2.4378  54.4013 0003946 350.9759 330.7665  1.00268621 31533
TIANHUI 1-02            
1 38256U 12020A   21068.15142567  .00000785  00000-0  35914-4 0  9993
2 38256  97.4414 195.1132 0017356 122.8074   1.8054 15.23355254491561
YAOGAN 14               
1 38257U 12021A   21068.20469132  .00001293  00000-0  57230-4 0  9991
2 38257  97.4756 204.7976 0001656 106.7497  15.0333 15.23471955492701
JCSAT-13                
1 38331U 12023A   21067.85257652 -.00000378  00000-0  00000-0 0  9991
2 38331   0.0126 205.5568 0001439 178.1494 213.9625  1.00273532 32210
VINASAT-2               
1 38332U 12023B   21067.80921019 -.00000351  00000-0  00000-0 0  9993
2 38332   0.0403 300.4984 0002438  72.0603 217.2921  1.00271388 27341
GCOM-W1 (SHIZUKU)       
1 38337U 12025A   21067.85296272  .00000061  00000-0  23507-4 0  9999
2 38337  98.2072  10.0138 0001163 143.7379 280.2325 14.57075695468517
ARIRANG-3 (KOMPSAT-3)   
1 38338U 12025B   21068.17514897  .00000081  00000-0  25799-4 0  9999
2 38338  98.1776   9.1680 0011923  35.5202 324.6794 14.61654788470008
SDS-4                   
1 38339U 12025C   21068.04597119  .00000067  00000-0  19583-4 0  9992
2 38339  98.3114 120.1871 0006443 309.6282  50.4354 14.70624456472600
NIMIQ 6                 
1 38342U 12026A   21067.90831021 -.00000195  00000-0  00000-0 0  9997
2 38342   0.0436 295.2855 0001963  61.0569  46.3378  1.00270580 31106
CHINASAT 2A (ZX 2A)     
1 38352U 12028A   21068.00327010 -.00000314  00000-0  00000+0 0  9992
2 38352   0.0262 140.3797 0002413 253.0638 232.8054  1.00267880 32327
YAOGAN 15               
1 38354U 12029A   21068.14543720 -.00000027  00000-0  48372-4 0  9998
2 38354 100.6101 214.8394 0024935 332.0825  27.8943 13.18262951421650
INTELSAT 19 (IS-19)     
1 38356U 12030A   21067.81601459 -.00000079  00000-0  00000-0 0  9998
2 38356   0.0168 237.5406 0002825 117.5088 271.4104  1.00271667 31133
NUSTAR                  
1 38358U 12031A   21067.53161735  .00001101  00000-0  41195-4 0  9998
2 38358   6.0260 150.5494 0011099  97.6580 262.4809 14.88466308475360
ECHOSTAR 17             
1 38551U 12035A   21067.61807630 -.00000096  00000-0  00000-0 0  9996
2 38551   0.0188 149.5947 0001855 194.6708 297.6414  1.00271312 31749
METEOSAT-10 (MSG-3)     
1 38552U 12035B   21067.78487135  .00000039  00000-0  00000-0 0  9995
2 38552   1.2176   1.0626 0000876  16.5342  81.0240  1.00265368 31548
SES-5                   
1 38652U 12036A   21068.03967141  .00000012  00000-0  00000+0 0  9996
2 38652   0.0210 122.5619 0001801 229.3177 194.3327  1.00276685 31756
KANOPUS-V 1             
1 38707U 12039A   21068.12277206  .00000779  00000-0  39819-4 0  9991
2 38707  97.4633 349.8215 0001675  86.5549  24.9120 15.19580055478698
BKA 2                   
1 38708U 12039B   21068.24866550  .00000474  00000-0  25019-4 0  9990
2 38708  97.3660 334.7683 0001772  92.0721  65.8513 15.20094188478714
EXACTVIEW-1 (ADS-1B)    
1 38709U 12039C   21068.07893345 -.00000000  00000-0  20401-4 0  9990
2 38709  99.0749 116.3476 0010236 318.5678  41.4722 14.24041512448500
TET-1                   
1 38710U 12039D   21067.87824254  .00005287  00000-0  85051-4 0  9995
2 38710  97.5707 116.0904 0001046  12.7467 347.3812 15.53470738484901
MKA-PN 1                
1 38711U 12039E   21067.86147020  .00000005  00000-0  22783-4 0  9990
2 38711  99.0717 115.5135 0010847 319.7993  40.2382 14.24319873448543
TIANLIAN 1-03           
1 38730U 12040A   21067.93055535  .00000103  00000-0  00000-0 0  9993
2 38730   0.8600  98.0515 0006912 287.8974 136.2609  1.00268707 31673
COSMOS 2481             
1 38733U 12041A   21067.74007745  .00000055  00000-0  32664-3 0  9996
2 38733  82.4777 196.2091 0018424 314.7750  45.1847 12.42384380390618
GONETS-M 3              
1 38734U 12041B   21067.76387992  .00000040  00000-0  20971-3 0  9996
2 38734  82.4792 191.2852 0015518 319.7453  40.2491 12.44817664391049
GONETS-M 4              
1 38736U 12041D   21067.78649781  .00000043  00000-0  23419-3 0  9990
2 38736  82.4823 194.3194 0023823 300.9027  58.9706 12.43821338390884
INTELSAT 20 (IS-20)     
1 38740U 12043A   21067.65305788 -.00000046  00000-0  00000-0 0  9991
2 38740   0.0207 144.3418 0001038  43.6101 282.1926  1.00271167 31431
HYLAS 2                 
1 38741U 12043B   21067.89355091  .00000132  00000-0  00000-0 0  9995
2 38741   0.0382 281.9148 0001504  69.7182 167.8413  1.00272868 31451
EXPRESS-MD2             
1 38745U 12044B   21067.62995914  .00009516  23435-5  23797-3 0  9993
2 38745  49.8989 150.5064 2189562 269.2708  65.8702 11.08003196336586
INTELSAT 21 (IS-21)     
1 38749U 12045A   21067.48425642 -.00000306  00000-0  00000-0 0  9994
2 38749   0.0087 176.8343 0001915 181.3578 284.5162  1.00270881 31211
SPOT 6                  
1 38755U 12047A   21068.13974691 -.00000015  00000-0  66398-5 0  9993
2 38755  98.2128 137.1014 0001363  81.9512 278.1856 14.58546932452326
AEROCUBE 4.5A           
1 38767U 12048K   21067.89538316  .00000434  00000-0  49998-4 0  9999
2 38767  64.6656 129.3075 0141283  40.2825 320.8651 14.92610691 81264
AEROCUBE 4.5B           
1 38768U 12048L   21067.78054453  .00001068  00000-0  92998-4 0  9995
2 38768  64.6657  93.4500 0132767  34.6323 326.3346 14.96411260 81422
METOP-B                 
1 38771U 12049A   21068.14207676 -.00000004  00000-0  18061-4 0  9997
2 38771  98.6924 129.6147 0000834   4.8441  23.3179 14.21499592439627
BEIDOU 15               
1 38775U 12050B   21067.72373120 -.00000021  00000-0  00000-0 0  9993
2 38775  55.1607 127.3782 0014455 316.5688   4.4590  1.86232301 57787
ASTRA 2F                
1 38778U 12051A   21067.89355091  .00000128  00000-0  00000-0 0  9999
2 38778   0.0753 240.1775 0001779  35.0258 241.4391  1.00273448 21807
